[{"OBJECT_NAME":"STARLINK-5682","OBJECT_ID":"2023-015J","EPOCH":"2025-10-15T23:37:15.849408","MEAN_MOTION":15.02547375,"ECCENTRICITY":7.8e-5,"INCLINATION":43.0067,"RA_OF_ASC_NODE":32.5302,"ARG_OF_PERICENTER":278.0797,"MEAN_ANOMALY":81.9957,"EPHEMERIS_TYPE":0,"CLASSIFICATION_TYPE":"U","NORAD_CAT_ID":55457,"ELEMENT_SET_NO":999,"REV_AT_EPOCH":14898,"BSTAR":0.00015985,"MEAN_MOTION_DOT":1.957e-5,"MEAN_MOTION_DDOT":0},{"OBJECT_NAME":"STARLINK-5020","OBJECT_ID":"2023-015K","EPOCH":"2025-10-15T15:19:28.185888","MEAN_MOTION":15.02538693,"ECCENTRICITY":9.5e-5,"INCLINATION":43.0082,"RA_OF_ASC_NODE":34.2336,"ARG_OF_PERICENTER":274.6734,"MEAN_ANOMALY":85.4,"EPHEMERIS_TYPE":0,"CLASSIFICATION_TYPE":"U","NORAD_CAT_ID":55458,"ELEMENT_SET_NO":999,"REV_AT_EPOCH":14893,"BSTAR":0.00013796,"MEAN_MOTION_DOT":1.661e-5,"MEAN_MOTION_DDOT":0},{"OBJECT_NAME":"STARLINK-5669","OBJECT_ID":"2023-015L","EPOCH":"2025-10-15T23:24:30.339360","MEAN_MOTION":15.02537727,"ECCENTRICITY":0.0001223,"INCLINATION":43.0058,"RA_OF_ASC_NODE":32.4616,"ARG_OF_PERICENTER":266.88,"MEAN_ANOMALY":93.1902,"EPHEMERIS_TYPE":0,"CLASSIFICATION_TYPE":"U","NORAD_CAT_ID":55459,"ELEMENT_SET_NO":999,"REV_AT_EPOCH":14898,"BSTAR":8.7912e-5,"MEAN_MOTION_DOT":9.84e-6,"MEAN_MOTION_DDOT":0},{"OBJECT_NAME":"STARLINK-5678","OBJECT_ID":"2023-015M","EPOCH":"2025-10-15T23:19:42.476160","MEAN_MOTION":15.02539667,"ECCENTRICITY":0.0001025,"INCLINATION":43.0066,"RA_OF_ASC_NODE":32.4376,"ARG_OF_PERICENTER":267.1725,"MEAN_ANOMALY":92.9,"EPHEMERIS_TYPE":0,"CLASSIFICATION_TYPE":"U","NORAD_CAT_ID":55460,"ELEMENT_SET_NO":999,"REV_AT_EPOCH":14898,"BSTAR":8.643e-5,"MEAN_MOTION_DOT":9.64e-6,"MEAN_MOTION_DDOT":0},{"OBJECT_NAME":"STARLINK-5646","OBJECT_ID":"2023-015N","EPOCH":"2025-10-15T23:29:18.124800","MEAN_MOTION":15.02535037,"ECCENTRICITY":0.0001307,"INCLINATION":43.0047,"RA_OF_ASC_NODE":32.4861,"ARG_OF_PERICENTER":265.3701,"MEAN_ANOMALY":94.6992,"EPHEMERIS_TYPE":0,"CLASSIFICATION_TYPE":"U","NORAD_CAT_ID":55461,"ELEMENT_SET_NO":999,"REV_AT_EPOCH":14898,"BSTAR":7.0581e-5,"MEAN_MOTION_DOT":7.5e-6,"MEAN_MOTION_DDOT":0},{"OBJECT_NAME":"STARLINK-5673","OBJECT_ID":"2023-015P","EPOCH":"2025-10-15T16:40:49.123200","MEAN_MOTION":15.02544651,"ECCENTRICITY":0.00012045,"INCLINATION":43.0057,"RA_OF_ASC_NODE":33.7956,"ARG_OF_PERICENTER":271.6597,"MEAN_ANOMALY":88.4107,"EPHEMERIS_TYPE":0,"CLASSIFICATION_TYPE":"U","NORAD_CAT_ID":55462,"ELEMENT_SET_NO":999,"REV_AT_EPOCH":14894,"BSTAR":-0.00011380732,"MEAN_MOTION_DOT":-1.741e-5,"MEAN_MOTION_DDOT":0},{"OBJECT_NAME":"STARLINK-5677","OBJECT_ID":"2023-015Q","EPOCH":"2025-10-15T16:48:48.041856","MEAN_MOTION":15.02538188,"ECCENTRICITY":0.00010488,"INCLINATION":43.0052,"RA_OF_ASC_NODE":33.8381,"ARG_OF_PERICENTER":271.315,"MEAN_ANOMALY":88.7573,"EPHEMERIS_TYPE":0,"CLASSIFICATION_TYPE":"U","NORAD_CAT_ID":55463,"ELEMENT_SET_NO":999,"REV_AT_EPOCH":14894,"BSTAR":9.0269858e-5,"MEAN_MOTION_DOT":1.016e-5,"MEAN_MOTION_DDOT":0},{"OBJECT_NAME":"STARLINK-5676","OBJECT_ID":"2023-015R","EPOCH":"2025-10-16T00:29:52.044000","MEAN_MOTION":15.02536022,"ECCENTRICITY":0.0001212,"INCLINATION":43.0055,"RA_OF_ASC_NODE":31.9411,"ARG_OF_PERICENTER":267.2477,"MEAN_ANOMALY":92.8227,"EPHEMERIS_TYPE":0,"CLASSIFICATION_TYPE":"U","NORAD_CAT_ID":55464,"ELEMENT_SET_NO":999,"REV_AT_EPOCH":14899,"BSTAR":9.7614e-5,"MEAN_MOTION_DOT":1.115e-5,"MEAN_MOTION_DDOT":0},{"OBJECT_NAME":"STARLINK-5674","OBJECT_ID":"2023-015S","EPOCH":"2025-10-15T08:37:22.806336","MEAN_MOTION":15.02536661,"ECCENTRICITY":0.00012249,"INCLINATION":43.0043,"RA_OF_ASC_NODE":35.5794,"ARG_OF_PERICENTER":264.8056,"MEAN_ANOMALY":95.2647,"EPHEMERIS_TYPE":0,"CLASSIFICATION_TYPE":"U","NORAD_CAT_ID":55465,"ELEMENT_SET_NO":999,"REV_AT_EPOCH":14889,"BSTAR":5.4135464e-5,"MEAN_MOTION_DOT":5.28e-6,"MEAN_MOTION_DDOT":0},{"OBJECT_NAME":"STARLINK-5628","OBJECT_ID":"2023-015T","EPOCH":"2025-10-16T00:10:41.045664","MEAN_MOTION":15.02538796,"ECCENTRICITY":0.0001394,"INCLINATION":43.0055,"RA_OF_ASC_NODE":31.8394,"ARG_OF_PERICENTER":269.4413,"MEAN_ANOMALY":90.627,"EPHEMERIS_TYPE":0,"CLASSIFICATION_TYPE":"U","NORAD_CAT_ID":55466,"ELEMENT_SET_NO":999,"REV_AT_EPOCH":14899,"BSTAR":8.4025e-5,"MEAN_MOTION_DOT":9.32e-6,"MEAN_MOTION_DDOT":0},{"OBJECT_NAME":"STARLINK-5679","OBJECT_ID":"2023-015U","EPOCH":"2025-10-15T15:09:53.015040","MEAN_MOTION":15.02538166,"ECCENTRICITY":0.0001614,"INCLINATION":43.0055,"RA_OF_ASC_NODE":34.185,"ARG_OF_PERICENTER":274.174,"MEAN_ANOMALY":85.8918,"EPHEMERIS_TYPE":0,"CLASSIFICATION_TYPE":"U","NORAD_CAT_ID":55467,"ELEMENT_SET_NO":999,"REV_AT_EPOCH":14893,"BSTAR":5.2026e-5,"MEAN_MOTION_DOT":4.99e-6,"MEAN_MOTION_DDOT":0},{"OBJECT_NAME":"STARLINK-5672","OBJECT_ID":"2023-015V","EPOCH":"2025-10-16T00:26:40.183296","MEAN_MOTION":15.02536814,"ECCENTRICITY":0.0001222,"INCLINATION":43.0062,"RA_OF_ASC_NODE":31.9234,"ARG_OF_PERICENTER":266.7727,"MEAN_ANOMALY":93.2975,"EPHEMERIS_TYPE":0,"CLASSIFICATION_TYPE":"U","NORAD_CAT_ID":55468,"ELEMENT_SET_NO":999,"REV_AT_EPOCH":14899,"BSTAR":8.9403e-5,"MEAN_MOTION_DOT":1.004e-5,"MEAN_MOTION_DDOT":0},{"OBJECT_NAME":"STARLINK-5681","OBJECT_ID":"2023-015W","EPOCH":"2025-10-15T16:32:50.589024","MEAN_MOTION":15.02523017,"ECCENTRICITY":0.00016032,"INCLINATION":43.0093,"RA_OF_ASC_NODE":33.7558,"ARG_OF_PERICENTER":266.0757,"MEAN_ANOMALY":93.9902,"EPHEMERIS_TYPE":0,"CLASSIFICATION_TYPE":"U","NORAD_CAT_ID":55469,"ELEMENT_SET_NO":999,"REV_AT_EPOCH":14894,"BSTAR":-4.9123053e-5,"MEAN_MOTION_DOT":-8.67e-6,"MEAN_MOTION_DDOT":0},{"OBJECT_NAME":"STARLINK-5708","OBJECT_ID":"2023-015X","EPOCH":"2025-10-15T08:22:59.997792","MEAN_MOTION":15.02531293,"ECCENTRICITY":0.00010414,"INCLINATION":43.0022,"RA_OF_ASC_NODE":35.5026,"ARG_OF_PERICENTER":278.0227,"MEAN_ANOMALY":82.0497,"EPHEMERIS_TYPE":0,"CLASSIFICATION_TYPE":"U","NORAD_CAT_ID":55470,"ELEMENT_SET_NO":999,"REV_AT_EPOCH":14889,"BSTAR":5.0724924e-5,"MEAN_MOTION_DOT":4.82e-6,"MEAN_MOTION_DDOT":0},{"OBJECT_NAME":"STARLINK-5711","OBJECT_ID":"2023-015Y","EPOCH":"2025-10-16T00:17:04.763616","MEAN_MOTION":15.02536743,"ECCENTRICITY":0.0001167,"INCLINATION":43.003,"RA_OF_ASC_NODE":31.8716,"ARG_OF_PERICENTER":260.4513,"MEAN_ANOMALY":99.6198,"EPHEMERIS_TYPE":0,"CLASSIFICATION_TYPE":"U","NORAD_CAT_ID":55471,"ELEMENT_SET_NO":999,"REV_AT_EPOCH":14899,"BSTAR":9.5854e-5,"MEAN_MOTION_DOT":1.091e-5,"MEAN_MOTION_DDOT":0},{"OBJECT_NAME":"STARLINK-5705","OBJECT_ID":"2023-015Z","EPOCH":"2025-10-15T22:40:17.516352","MEAN_MOTION":15.0253591,"ECCENTRICITY":0.0001237,"INCLINATION":43.0034,"RA_OF_ASC_NODE":20.0844,"ARG_OF_PERICENTER":267.8651,"MEAN_ANOMALY":92.205,"EPHEMERIS_TYPE":0,"CLASSIFICATION_TYPE":"U","NORAD_CAT_ID":55472,"ELEMENT_SET_NO":999,"REV_AT_EPOCH":14912,"BSTAR":8.6767e-5,"MEAN_MOTION_DOT":9.69e-6,"MEAN_MOTION_DDOT":0},{"OBJECT_NAME":"STARLINK-5687","OBJECT_ID":"2023-015AA","EPOCH":"2025-10-16T04:00:03.000096","MEAN_MOTION":15.79757184,"ECCENTRICITY":0.003233,"INCLINATION":42.98,"RA_OF_ASC_NODE":243.9011,"ARG_OF_PERICENTER":104.8366,"MEAN_ANOMALY":116.3003,"EPHEMERIS_TYPE":0,"CLASSIFICATION_TYPE":"U","NORAD_CAT_ID":55473,"ELEMENT_SET_NO":999,"REV_AT_EPOCH":581,"BSTAR":0.00090488,"MEAN_MOTION_DOT":0.00181139,"MEAN_MOTION_DDOT":0}]
