STARLINK-5682           
1 55457U 23015J   25288.98421122  .00001957  00000+0  15985-3 0  9993
2 55457  43.0067  32.5302 0000780 278.0797  81.9957 15.02547375148986
STARLINK-5020           
1 55458U 23015K   25288.63852067  .00001661  00000+0  13796-3 0  9992
2 55458  43.0082  34.2336 0000950 274.6734  85.4000 15.02538693148938
STARLINK-5669           
1 55459U 23015L   25288.97535115  .00000984  00000+0  87912-4 0  9991
2 55459  43.0058  32.4616 0001223 266.8800  93.1902 15.02537727148983
STARLINK-5678           
1 55460U 23015M   25288.97201940  .00000964  00000+0  86430-4 0  9991
2 55460  43.0066  32.4376 0001025 267.1725  92.9000 15.02539667148988
STARLINK-5646           
1 55461U 23015N   25288.97868200  .00000750  00000+0  70581-4 0  9993
2 55461  43.0047  32.4861 0001307 265.3701  94.6992 15.02535037148980
STARLINK-5673           
1 55462U 23015P   25288.69501300 -.00001741  00000+0 -11381-3 0  9993
2 55462  43.0057  33.7956 0001204 271.6597  88.4107 15.02544651148947
STARLINK-5677           
1 55463U 23015Q   25288.70055604  .00001016  00000+0  90270-4 0  9995
2 55463  43.0052  33.8381 0001048 271.3150  88.7573 15.02538188148942
STARLINK-5676           
1 55464U 23015R   25289.02074125  .00001115  00000+0  97614-4 0  9990
2 55464  43.0055  31.9411 0001212 267.2477  92.8227 15.02536022148990
STARLINK-5674           
1 55465U 23015S   25288.35929174  .00000528  00000+0  54135-4 0  9997
2 55465  43.0043  35.5794 0001224 264.8056  95.2647 15.02536661148892
STARLINK-5628           
1 55466U 23015T   25289.00741951  .00000932  00000+0  84025-4 0  9996
2 55466  43.0055  31.8394 0001394 269.4413  90.6270 15.02538796148990
STARLINK-5679           
1 55467U 23015U   25288.63186360  .00000499  00000+0  52026-4 0  9996
2 55467  43.0055  34.1850 0001614 274.1740  85.8918 15.02538166148935
STARLINK-5672           
1 55468U 23015V   25289.01852064  .00001004  00000+0  89403-4 0  9993
2 55468  43.0062  31.9234 0001222 266.7727  93.2975 15.02536814148992
STARLINK-5681           
1 55469U 23015W   25288.68947441 -.00000867  00000+0 -49123-4 0  9993
2 55469  43.0093  33.7558 0001603 266.0757  93.9902 15.02523017148948
STARLINK-5708           
1 55470U 23015X   25288.34930553  .00000482  00000+0  50725-4 0  9995
2 55470  43.0022  35.5026 0001041 278.0227  82.0497 15.02531293148890
STARLINK-5711           
1 55471U 23015Y   25289.01186069  .00001091  00000+0  95854-4 0  9995
2 55471  43.0030  31.8716 0001167 260.4513  99.6198 15.02536743148995
STARLINK-5705           
1 55472U 23015Z   25288.94464718  .00000969  00000+0  86767-4 0  9993
2 55472  43.0034  20.0844 0001237 267.8651  92.2050 15.02535910149121
STARLINK-5687           
1 55473U 23015AA  25289.16670139  .00181139  00000+0  90488-3 0  9998
2 55473  42.9800 243.9011 0032330 104.8366 116.3003 15.79757184  5810
